0 IRIDIUM 33 DEB
1 33872U 97051AR  13282.49911875  .00011705  00000-0  26868-2 0  4581
2 33872 086.3315 105.2135 0019243 009.8220 044.4729 14.55318519245641
0 IRIDIUM 33 DEB
1 33872U 97051AR  13286.01879773  .00011141  00000-0  25538-2 0  4614
2 33872 086.3309 103.6635 0018900 357.6841 125.2902 14.55386175246154
0 IRIDIUM 33 DEB
1 33872U 97051AR  13287.04706289  .00010681  00000-0  24475-2 0  4627
2 33872 086.3307 103.2107 0018817 354.0957 112.9323 14.55404334246303
0 IRIDIUM 33 DEB
1 33872U 97051AR  13288.48122884  .00017744  00000-0  40615-2 0  4631
2 33872 086.3301 102.5793 0018725 349.0248 067.5160 14.55445387246515
0 IRIDIUM 33 DEB
1 33872U 97051AR  13289.58444414  .00015766  00000-0  36071-2 0  4643
2 33872 086.3300 102.0933 0018681 344.9015 088.3904 14.55472831246670
0 IRIDIUM 33 DEB
1 33872U 97051AR  13290.75011693  .00017091  00000-0  39077-2 0  4656
2 33872 086.3301 101.5797 0018527 341.0593 076.1424 14.55499661246842
0 IRIDIUM 33 DEB
1 33872U 97051AR  13291.78246766  .00014642  00000-0  33468-2 0  4669
2 33872 086.3307 101.1252 0018499 337.1943 085.8932 14.55523537246990
0 IRIDIUM 33 DEB
1 33872U 97051AR  13292.81423881  .00014332  00000-0  32741-2 0  4679
2 33872 086.3310 100.6707 0018493 333.3963 092.6325 14.55549719247147
0 IRIDIUM 33 DEB
1 33872U 97051AR  13293.84342951  .00016089  00000-0  36734-2 0  4689
2 33872 086.3312 100.2173 0018451 329.7379 085.8161 14.55572371247294
0 IRIDIUM 33 DEB
1 33872U 97051AR  13294.95174164  .00015608  00000-0  35614-2 0  4694
2 33872 086.3316 099.7294 0018482 325.7085 133.8018 14.55600263247453
0 IRIDIUM 33 DEB
1 33872U 97051AR  13295.98745899  .00017166  00000-0  39140-2 0  4708
2 33872 086.3318 099.2734 0018481 321.9479 161.4573 14.55629161247601
